HULIANWANG DIGUI-129    
1 67237U 25311B   26063.85227036 -.00000053  00000+0  14560-3 0  9994
2 67237  50.0064 129.8324 0000902 289.9521  70.1256 13.33962421  9462
HULIANWANG DIGUI-130    
1 67238U 25311C   26063.89956906 -.00000049  00000+0  15587-3 0  9999
2 67238  50.0044 130.0596 0001075 281.7227  78.3526 13.32770424  9460
HULIANWANG DIGUI-131    
1 67239U 25311D   26063.90765811 -.00000047  00000+0  15948-3 0  9994
2 67239  50.0041 130.0977 0000447 271.6265  88.4557 13.32648386  9460
HULIANWANG DIGUI-132    
1 67240U 25311E   26063.73365419 -.00000062  00000+0  12929-3 0  9990
2 67240  50.0052 130.5235 0000243 246.6930 113.3919 13.33118791  9442
HULIANWANG DIGUI-133    
1 67241U 25311F   26063.86786585 -.00000054  00000+0  14400-3 0  9993
2 67241  50.0097 129.9321 0000504 260.1025  99.9792 13.33559190  9468
HULIANWANG DIGUI-134    
1 67242U 25311G   26063.72597116 -.00000055  00000+0  14350-3 0  9994
2 67242  50.0024 130.4695 0000201  94.2818 265.8079 13.33383633  9447
HULIANWANG DIGUI-135    
1 67243U 25311H   26063.59169897 -.00000053  00000+0  14776-3 0  9991
2 67243  50.0009 131.0806 0000881 265.6623  94.4150 13.32978891  9423
HULIANWANG DIGUI-136    
1 67244U 25311J   26062.28737188 -.00000063  00000+0  12459-3 0  9998
2 67244  50.0120 135.5779 0001735 318.4482  41.6261 13.35587069  9259
HULIANWANG DIGUI-137    
1 67435U 26007A   26062.29512125 -.00000025  00000+0  17791-3 0  9998
2 67435  50.0080 106.1504 0001750 116.8856 243.2202 13.44406338  6697
HULIANWANG DIGUI-138    
1 67436U 26007B   26062.30877376 -.00000028  00000+0  17503-3 0  9997
2 67436  50.0071 106.2207 0000594 208.7560 151.3286 13.43759555  6699
HULIANWANG DIGUI-139    
1 67437U 26007C   26064.01342826 -.00000012  00000+0  20610-3 0  9991
2 67437  50.0019  99.9004 0000589 100.1492 259.9452 13.42449756  6922
HULIANWANG DIGUI-140    
1 67438U 26007D   26062.31585352 -.00000014  00000+0  19847-3 0  9998
2 67438  50.0067 106.2628 0000614 210.9682 149.1160 13.43527498  6691
HULIANWANG DIGUI-141    
1 67439U 26007E   26062.28868161 -.00000024  00000+0  17960-3 0  9992
2 67439  50.0174 106.0944 0000968 218.2307 141.8503 13.44477953  6698
HULIANWANG DIGUI-142    
1 67440U 26007F   26063.39753488 -.00000107  00000+0  38929-4 0  9993
2 67440  50.0104 102.0096 0003260 327.4413  32.6264 13.43451065  6849
HULIANWANG DIGUI-143    
1 67441U 26007G   26062.27569739 -.00000027  00000+0  17428-3 0  9995
2 67441  50.0133 106.0859 0001458 312.0229  48.0526 13.44825453  6697
HULIANWANG DIGUI-144    
1 67442U 26007H   26063.16087228 -.00000032  00000+0  16586-3 0  9993
2 67442  50.0083 102.7600 0001405 304.1760  55.8985 13.44212062  6818
